CCSDS_OMM_VERS = 2.0
CREATION_DATE  = 
ORIGINATOR     = 

OBJECT_NAME    = SHENZHOU-21 (SZ-21)
OBJECT_ID      = 2025-246A
CENTER_NAME    = EARTH
REF_FRAME      = TEME
TIME_SYSTEM    = UTC
MEAN_ELEMENT_THEORY = SGP/SGP4

EPOCH          = 2025-11-03T21:41:52.480896
MEAN_MOTION    = 15.60323166
ECCENTRICITY   = .00064197
INCLINATION    = 41.4667
RA_OF_ASC_NODE = 252.5607
ARG_OF_PERICENTER = 318.2351
MEAN_ANOMALY   = 41.7998

EPHEMERIS_TYPE = 0
CLASSIFICATION_TYPE = U
NORAD_CAT_ID   = 66263
ELEMENT_SET_NO = 999
REV_AT_EPOCH   = 25794
BSTAR          = .38006417E-3
MEAN_MOTION_DOT = .31822E-3
MEAN_MOTION_DDOT = 0

CCSDS_OMM_VERS = 2.0
CREATION_DATE  = 
ORIGINATOR     = 

OBJECT_NAME    = CZ-2F R/B
OBJECT_ID      = 2025-246B
CENTER_NAME    = EARTH
REF_FRAME      = TEME
TIME_SYSTEM    = UTC
MEAN_ELEMENT_THEORY = SGP/SGP4

EPOCH          = 2025-11-03T21:08:04.354944
MEAN_MOTION    = 16.06270355
ECCENTRICITY   = .00969608
INCLINATION    = 41.4651
RA_OF_ASC_NODE = 251.4357
ARG_OF_PERICENTER = 149.8032
MEAN_ANOMALY   = 210.8459

EPHEMERIS_TYPE = 0
CLASSIFICATION_TYPE = U
NORAD_CAT_ID   = 66264
ELEMENT_SET_NO = 999
REV_AT_EPOCH   = 52
BSTAR          = .64782416E-3
MEAN_MOTION_DOT = .992096E-2
MEAN_MOTION_DDOT = .7579052E-5

